EXPRESS-AM 3            
1 28707U 05023A   08269.78693380 -.00000301  00000-0  00000+0 0  8659
2 28707   0.0523 112.1022 0002311  69.7774 246.4604  1.00269802 11952
THAICOM 4               
1 28786U 05028A   08269.58033413 -.00000383  00000-0  10000-3 0  4644
2 28786   0.0037 220.0186 0002844 331.7435 141.3905  1.00270218 11484
GALAXY 14 (G-14)        
1 28790U 05030A   08269.45771052  .00000015  00000-0  10000-3 0  5839
2 28790   0.0356  54.5460 0002632 140.0612 209.8086  1.00272891 11402
ANIK F1R                
1 28868U 05036A   08269.54036125 -.00000096  00000-0  00000+0 0  5516
2 28868   0.0122 148.5354 0002208   7.7057 295.7446  1.00272780 11249
GALAXY 15 (G-15)        
1 28884U 05041A   08267.58399333  .00000060  00000-0  10000-3 0  5037
2 28884   0.0110 278.9217 0002660 262.3303 258.7826  1.00271852 10817
SYRACUSE 3A             
1 28885U 05041B   08265.99935684  .00000117  00000-0  10000-3 0  4803
2 28885   0.0070 213.7342 0002039 340.9850 213.2841  1.00269128 10893
INMARSAT 4-F2           
1 28899U 05044A   08268.40479410 -.00000310  00000-0  10000-3 0  6224
2 28899   2.3975 308.0645 0003013 234.8335 273.6665  1.00269890 10590
TELKOM 2                
1 28902U 05046A   08268.92071063 -.00000384  00000-0  10000-3 0  4926
2 28902   0.0125 185.6601 0001390  12.2133 255.6999  1.00268772 10495
SPACEWAY 2              
1 28903U 05046B   08269.41706532 -.00000147  00000-0  10000-3 0  5106
2 28903   0.0439 354.0614 0000184 263.8237 157.7409  1.00271192 10587
INSAT-4A                
1 28911U 05049A   08265.69930825 -.00000176  00000-0  10000-3 0  5111
2 28911   0.0208 300.9876 0004660 190.7778 203.9199  1.00270208 10139
METEOSAT-9 (MSG-2)      
1 28912U 05049B   08265.93722951 -.00000014  00000-0  10000-3 0  4141
2 28912   0.3379 209.1356 0001654  87.9769  41.8715  1.00262573 10153
AMC-23                  
1 28924U 05052A   08268.63876949 -.00000026  00000-0  10000-3 0  5138
2 28924   0.0015 209.8129 0003340 331.5387 224.4473  1.00272294 10064
ECHOSTAR 10             
1 28935U 06003A   08269.42260544 -.00000077  00000-0  10000-3 0  5308
2 28935   0.0217 346.5826 0001604 218.6065 201.3805  1.00272757  9607
MTSAT-2                 
1 28937U 06004A   08268.65619779 -.00000263  00000-0  10000-3 0  4668
2 28937   0.0329 264.0796 0002207 283.1539 197.9047  1.00271758  9570
SPAINSAT                
1 28945U 06007A   08267.20000000 -.00000233  00000-0  00000+0 0  3011
2 28945   0.0500 215.5590 0004619 348.3370 200.5470  1.00271603  9322
HOT BIRD 7A             
1 28946U 06007B   08267.88821772  .00000068  00000-0  10000-3 0  2360
2 28946   0.0379 266.9762 0005483 274.9636 153.9392  1.00274259  9376
JCSAT 9                 
1 29045U 06010A   08269.56882536 -.00000349  00000-0  10000-3 0  3451
2 29045   0.0248 298.0525 0002621 252.6510 150.8736  1.00269670  9032
ASTRA 1KR               
1 29055U 06012A   08269.00000000  .00000099  00000-0  00000+0 0  2401
2 29055   0.1020 186.6270 0005056  26.4860 170.2600  1.00273259  8955
GALAXY 16 (G-16)        
1 29236U 06023A   08269.48978619 -.00000148  00000-0  10000-3 0  3914
2 29236   0.0068 183.1325 0003076   6.9805 251.8716  1.00270846  8359
GOES 13                 
1 29155U 06018A   08268.46437701 -.00000109  00000-0  10000-3 0  4870
2 29155   0.4166  84.2798 0002141 144.3188 197.2330  1.00273231  8592
SATMEX 6                
1 29162U 06020A   08269.50334549 -.00000058  00000-0  10000-3 0  3190
2 29162   0.0478 342.4783 0002279 203.0274 247.3750  1.00271557  8565
THAICOM 5               
1 29163U 06020B   08268.90784726 -.00000143  00000-0  10000-3 0  4589
2 29163   0.0322 251.5818 0003126 291.4681 226.4596  1.00272650  8626
HOT BIRD 8              
1 29270U 06032A   08267.88821772  .00000068  00000-0  10000-3 0  2101
2 29270   0.0431 288.7401 0004726 282.0589 125.0669  1.00274224  7933
JCSAT 10                
1 29272U 06033A   08265.82658684 -.00000358  00000-0  10000-3 0  3830
2 29272   1.0072  82.4891 0003316 108.6511 235.0178  1.00275375  7802
SYRACUSE 3B             
1 29273U 06033B   08268.89383394 -.00000064  00000-0  10000-3 0  2848
2 29273   0.0088 251.5670 0002471 285.0780 144.0486  1.00272808  7823
KOREASAT 5 (MUGUNGWHA 5)
1 29349U 06034A   08269.57998508 -.00000379  00000-0  10000-3 0  3613
2 29349   0.0331 149.5812 0002355  75.2458 101.7640  1.00269270  7724
ZHONGXING-22A           
1 29398U 06038A   08269.58136516 -.00000344  00000-0  10000-3 0  6171
2 29398   0.0572 288.9438 0002869 321.6242  66.8023  1.00264892  7525
DIRECTV 9S              
1 29494U 06043A   08269.54624319 -.00000135  00000-0  00000+0 0  3533
2 29494   0.0394 341.7264 0002638 212.2604 266.2812  1.00271653  7198
OPTUS D1                
1 29495U 06043B   08268.63585087 -.00000131  00000-0  10000-3 0  2586
2 29495   0.0173 254.2252 0002766 268.3235 230.1968  1.00271283  7228
XM-4 (BLUES)            
1 29520U 06049A   08268.45136288 -.00000045  00000-0  10000-3 0  2771
2 29520   0.0035 161.0714 0000368  94.2299 155.8701  1.00273190  7085
BADR-4 (ARABSAT-4B)     
1 29526U 06051A   08269.01678955  .00000124  00000-0  10000-3 0  3324
2 29526   0.0651  13.3670 0003247 112.9419 269.9728  1.00274851  6974
FENGYUN 2D              
1 29640U 06053A   08269.60431677 -.00000220  00000-0  10000-3 0  4785
2 29640   0.9487 259.1338 0001125  20.0391  29.5970  1.00276524  6641
WILDBLUE-1              
1 29643U 06054A   08269.55009418 -.00000071  00000-0  00000+0 0  3202
2 29643   0.0123 160.9451 0003133  32.2529 258.4703  1.00270887  6638
AMC 18                  
1 29644U 06054B   08268.46437043 -.00000110  00000-0  10000-3 0  3143
2 29644   0.0102 132.5325 0002934  44.5218 248.8457  1.00272158  6632
MEASAT-3                
1 29648U 06056A   08269.61675950 -.00000263  00000-0  10000-3 0  3024
2 29648   0.0191 136.9813 0001304  43.3478 138.0184  1.00271147  6655
KIKU-8 (ETS-VIII)       
1 29656U 06059A   08269.46454468 -.00000255  00000-0  10000-3 0  2770
2 29656   0.0424  85.5920 0002096 122.3494 109.9799  1.00271730  6541
BEIDOU 1D               
1 30323U 07003A   08269.36812429 -.00000338  00000-0  10000-3 0  5008
2 30323   5.0342 279.9805 0123819 297.5313  63.9655  1.00269183  6494
INSAT-4B                
1 30793U 07007A   08268.21185615 -.00000277  00000-0  10000-3 0  2599
2 30793   0.0130 253.0599 0004376 323.7889 316.3167  1.00269300  5655
SKYNET 5A               
1 30794U 07007B   08268.20392443 -.00000032  00000-0  10000-3 0  2564
2 30794   0.0682 355.7346 0003481 180.2200 259.7586  1.00273138  5825
ANIK F3                 
1 31102U 07009A   08269.76245164 -.00000022  00000-0  10000-3 0  2120
2 31102   0.0156 136.1009 0002219  56.0920 328.5259  1.00272996  5428
ASTRA 1L                
1 31306U 07016A   08269.00000000  .00000099  00000-0  00000-0 0  2094
2 31306   0.0710 193.1500 0003287  49.7810 140.4290  1.00272431  5163
GALAXY 17 (G-17)        
1 31307U 07016B   08267.47797027 -.00000193  00000-0  10000-3 0  2759
2 31307   0.0207 297.0520 0002302 266.5113 240.2058  1.00272164  5145
NIGCOMSAT 1             
1 31395U 07018A   08267.91777431  .00000125  00000-0  10000-3 0  2590
2 31395   0.0481  11.6729 0002692 168.3561 195.9771  1.00272811  5142
SINOSAT 3               
1 31577U 07021A   08269.56911490 -.00000375  00000-0  10000-3 0  3683
2 31577   0.0313 237.2025 0002284 293.4233 164.0525  1.00271820  4867
ZHONGXING-6B            
1 31800U 07031A   08269.58055927 -.00000382  00000-0  10000-3 0  3261
2 31800   0.0233 139.4650 0002490  60.2467 129.5763  1.00268185  4558
DIRECTV 10              
1 31862U 07032A   08267.53663058 -.00000122  00000-0  10000-3 0  2275
2 31862   0.0251 345.7952 0000290  89.7611  17.6168  1.00271310  4477
SPACEWAY 3              
1 32018U 07036A   08267.34686068 -.00000169  00000-0  10000-3 0  1571
2 32018   0.0295 345.0019 0000334 283.4845 123.9955  1.00270841  4199
BSAT-3A                 
1 32019U 07036B   08264.59699487 -.00000356  00000-0  10000-3 0  1900
2 32019   0.0129 233.3394 0004566 296.6467 154.6084  1.00267444  4096
INSAT-4CR               
1 32050U 07037A   08266.69656084 -.00000093  00000-0  10000-3 0  2410
2 32050   0.0066 178.7807 0003636 336.3850 171.5623  1.00271950  3911
OPTUS D2                
1 32252U 07044A   08268.60284616 -.00000204  00000-0  10000-3 0  2394
2 32252   0.0192 228.7641 0003199 318.2694 185.8000  1.00271565  3612
INTELSAT 11 (IS-11)     
1 32253U 07044B   08268.87115392 -.00000290  00000-0  10000-3 0  1482
2 32253   0.0322 128.6952 0002300  51.4392  94.4441  1.00269893  3609
STAR ONE C1             
1 32293U 07056A   08269.10344844 -.00000298  00000-0  10000-3 0  1301
2 32293   0.0191 129.0088 0002414  78.1703 129.3754  1.00272236  3239
SKYNET 5B               
1 32294U 07056B   08268.93425667  .00000078  00000-0  10000-3 0  1681
2 32294   0.0647 344.3774 0004494 205.4249 203.3885  1.00270779  3328
SIRIUS 4                
1 32299U 07057A   08265.91353028  .00000021  00000-0  00000+0 0  1181
2 32299   0.0132 187.5651 0002727 316.0427 191.2552  1.00273978  3136
RADUGA-1M 1             
1 32373U 07058A   08269.02071663 -.00000060  00000-0  10000-3 0  2509
2 32373   0.0116 218.0028 0002251 352.0388 231.6464  1.00272975  3819
RASCOM-QAF 1            
1 32387U 07063A   08265.93029823  .00000006  00000-0  10000-3 0   863
2 32387   0.0498 106.1203 0001819 136.9058  95.8385  1.00272891  3236
HORIZONS 2              
1 32388U 07063B   08268.42391302 -.00000273  00000-0  00000+0 0  1318
2 32388   0.0075 228.3665 0002614 308.9032 264.9067  1.00269875  2956
THURAYA-3               
1 32404U 08001A   08266.76849902 -.00000318  00000-0  10000-3 0  1303
2 32404   5.9197 329.6132 0005134 213.3419 194.3296  1.00271034  2596
EXPRESS-AM 33           
1 32478U 08003A   08269.17671470 -.00000302  00000-0  00000+0 0  1912
2 32478   0.0381 338.1309 0001174 302.3351 244.0296  1.00272423  2724
